[{"OBJECT_NAME":"GLOBAL-13","OBJECT_ID":"2021-115BB","EPOCH":"2026-03-09T12:16:18.391872","MEAN_MOTION":15.4216728,"ECCENTRICITY":0.00018107,"INCLINATION":53.1979,"RA_OF_ASC_NODE":167.0832,"ARG_OF_PERICENTER":133.3016,"MEAN_ANOMALY":226.8141,"EPHEMERIS_TYPE":0,"CLASSIFICATION_TYPE":"U","NORAD_CAT_ID":49773,"ELEMENT_SET_NO":999,"REV_AT_EPOCH":24036,"BSTAR":0.00049469468,"MEAN_MOTION_DOT":0.0002118,"MEAN_MOTION_DDOT":0},{"OBJECT_NAME":"BRO-8","OBJECT_ID":"2023-001C","EPOCH":"2026-03-09T23:04:57.447264","MEAN_MOTION":15.43180129,"ECCENTRICITY":0.000786,"INCLINATION":97.3339,"RA_OF_ASC_NODE":133.0927,"ARG_OF_PERICENTER":121.0914,"MEAN_ANOMALY":239.1106,"EPHEMERIS_TYPE":0,"CLASSIFICATION_TYPE":"U","NORAD_CAT_ID":55011,"ELEMENT_SET_NO":999,"REV_AT_EPOCH":17687,"BSTAR":0.00076718898,"MEAN_MOTION_DOT":0.00034068,"MEAN_MOTION_DDOT":0}]
