GLOBAL-13               
1 49773U 21115BB  26068.51132398  .00021180  00000+0  49469-3 0  9990
2 49773  53.1979 167.0832 0001810 133.3016 226.8141 15.42167280240365
BRO-8                   
1 55011U 23001C   26068.96177601  .00034068  00000+0  76719-3 0  9990
2 55011  97.3339 133.0927 0007860 121.0914 239.1106 15.43180129176877
